STARLINK-2506_new
1 18315C 21036AR  21326.18107838  .00005519  00000-0  36976-3 0  3261
2 18315  53.0546 292.9351 0002077  58.6569  13.6402 15.06397063    19
STARLINK-2506_old
1 28315C 21036AR  21325.11543860 -.00000420  00000-0 -28176-4 0  3253
2 28315  53.0547 297.7187 0001972  58.1364 351.9765 15.06391146    17
